{
  "type": "FeatureCollection",
  "features": [
    {
      "type": "Feature",
      "properties": {
        "norad_id": 66658,
        "name": "2025-274J",
        "group": "last-30-days",
        "lat": -46.4315642751837,
        "lon": -79.74884216385273,
        "alt_km": 589.4599443475054,
        "timestamp": "2025-12-10T18:56:58.834253+00:00",
        "meta_object_name": "2025-274J",
        "meta_object_id": "2025-274J",
        "meta_epoch": "2025-12-10T07:53:49.393824",
        "meta_mean_motion": 14.92600467,
        "meta_eccentricity": 0.0011492,
        "meta_inclination": 97.7383,
        "meta_ra_of_asc_node": 271.58,
        "meta_arg_of_pericenter": 288.0927,
        "meta_mean_anomaly": 71.904,
        "meta_ephemeris_type": 0,
        "meta_classification_type": "U",
        "meta_norad_cat_id": 66658,
        "meta_element_set_no": 999,
        "meta_rev_at_epoch": 204,
        "meta_bstar": 0.00044167,
        "meta_mean_motion_dot": 4.495e-05,
        "meta_mean_motion_ddot": 0,
        "tle_line1": "1 66658U 25274J   25344.32904391  .00004495  00000+0  44167-3 0  9996",
        "tle_line2": "2 66658  97.7383 271.5800 0011492 288.0927  71.9040 14.92600467  2042"
      },
      "geometry": {
        "type": "Point",
        "coordinates": [
          -79.74884216385273,
          -46.4315642751837
        ]
      }
    },
    {
      "type": "Feature",
      "properties": {
        "norad_id": 66659,
        "name": "JACK K",
        "group": "last-30-days",
        "lat": -37.1564515190069,
        "lon": -82.0480330787006,
        "alt_km": 588.64605575326,
        "timestamp": "2025-12-10T18:56:58.834263+00:00",
        "meta_object_name": "JACK K",
        "meta_object_id": "2025-274K",
        "meta_epoch": "2025-12-10T07:51:22.608000",
        "meta_mean_motion": 14.92785796,
        "meta_eccentricity": 0.0012207,
        "meta_inclination": 97.7384,
        "meta_ra_of_asc_node": 271.5826,
        "meta_arg_of_pericenter": 289.5073,
        "meta_mean_anomaly": 70.4827,
        "meta_ephemeris_type": 0,
        "meta_classification_type": "U",
        "meta_norad_cat_id": 66659,
        "meta_element_set_no": 999,
        "meta_rev_at_epoch": 204,
        "meta_bstar": 0.00042579,
        "meta_mean_motion_dot": 4.352e-05,
        "meta_mean_motion_ddot": 0,
        "tle_line1": "1 66659U 25274K   25344.32734500  .00004352  00000+0  42579-3 0  9997",
        "tle_line2": "2 66659  97.7384 271.5826 0012207 289.5073  70.4827 14.92785796  2041"
      },
      "geometry": {
        "type": "Point",
        "coordinates": [
          -82.0480330787006,
          -37.1564515190069
        ]
      }
    },
    {
      "type": "Feature",
      "properties": {
        "norad_id": 66660,
        "name": "K-HERO",
        "group": "last-30-days",
        "lat": -29.64155941866598,
        "lon": -83.52107387637353,
        "alt_km": 588.0542139516638,
        "timestamp": "2025-12-10T18:56:58.834275+00:00",
        "meta_object_name": "K-HERO",
        "meta_object_id": "2025-274L",
        "meta_epoch": "2025-12-10T06:12:53.438112",
        "meta_mean_motion": 14.92937795,
        "meta_eccentricity": 0.001285,
        "meta_inclination": 97.7388,
        "meta_ra_of_asc_node": 271.519,
        "meta_arg_of_pericenter": 290.1663,
        "meta_mean_anomaly": 69.8174,
        "meta_ephemeris_type": 0,
        "meta_classification_type": "U",
        "meta_norad_cat_id": 66660,
        "meta_element_set_no": 999,
        "meta_rev_at_epoch": 203,
        "meta_bstar": 0.00046639,
        "meta_mean_motion_dot": 4.792e-05,
        "meta_mean_motion_ddot": 0,
        "tle_line1": "1 66660U 25274L   25344.25895183  .00004792  00000+0  46639-3 0  9995",
        "tle_line2": "2 66660  97.7388 271.5190 0012850 290.1663  69.8174 14.92937795  2032"
      },
      "geometry": {
        "type": "Point",
        "coordinates": [
          -83.52107387637353,
          -29.64155941866598
        ]
      }
    },
    {
      "type": "Feature",
      "properties": {
        "norad_id": 66661,
        "name": "SNUGLITE-III",
        "group": "last-30-days",
        "lat": -22.100370843593566,
        "lon": -84.7908162976274,
        "alt_km": 587.4715038533013,
        "timestamp": "2025-12-10T18:56:58.834289+00:00",
        "meta_object_name": "SNUGLITE-III",
        "meta_object_id": "2025-274M",
        "meta_epoch": "2025-12-10T07:47:25.371744",
        "meta_mean_motion": 14.93077271,
        "meta_eccentricity": 0.0013516,
        "meta_inclination": 97.7387,
        "meta_ra_of_asc_node": 271.5864,
        "meta_arg_of_pericenter": 291.0981,
        "meta_mean_anomaly": 68.8793,
        "meta_ephemeris_type": 0,
        "meta_classification_type": "U",
        "meta_norad_cat_id": 66661,
        "meta_element_set_no": 999,
        "meta_rev_at_epoch": 204,
        "meta_bstar": 0.00033423,
        "meta_mean_motion_dot": 3.43e-05,
        "meta_mean_motion_ddot": 0,
        "tle_line1": "1 66661U 25274M   25344.32459921  .00003430  00000+0  33423-3 0  9995",
        "tle_line2": "2 66661  97.7387 271.5864 0013516 291.0981  68.8793 14.93077271  2045"
      },
      "geometry": {
        "type": "Point",
        "coordinates": [
          -84.7908162976274,
          -22.100370843593566
        ]
      }
    },
    {
      "type": "Feature",
      "properties": {
        "norad_id": 66662,
        "name": "2025-274N",
        "group": "last-30-days",
        "lat": -19.11732673252202,
        "lon": -85.25343880875454,
        "alt_km": 587.2749926818979,
        "timestamp": "2025-12-10T18:56:58.834299+00:00",
        "meta_object_name": "2025-274N",
        "meta_object_id": "2025-274N",
        "meta_epoch": "2025-12-10T06:10:08.186016",
        "meta_mean_motion": 14.9312662,
        "meta_eccentricity": 0.0013971,
        "meta_inclination": 97.7386,
        "meta_ra_of_asc_node": 271.5211,
        "meta_arg_of_pericenter": 291.0451,
        "meta_mean_anomaly": 68.9274,
        "meta_ephemeris_type": 0,
        "meta_classification_type": "U",
        "meta_norad_cat_id": 66662,
        "meta_element_set_no": 999,
        "meta_rev_at_epoch": 203,
        "meta_bstar": 0.00036205,
        "meta_mean_motion_dot": 3.726e-05,
        "meta_mean_motion_ddot": 0,
        "tle_line1": "1 66662U 25274N   25344.25703919  .00003726  00000+0  36205-3 0  9996",
        "tle_line2": "2 66662  97.7386 271.5211 0013971 291.0451  68.9274 14.93126620  2035"
      },
      "geometry": {
        "type": "Point",
        "coordinates": [
          -85.25343880875454,
          -19.11732673252202
        ]
      }
    },
    {
      "type": "Feature",
      "properties": {
        "norad_id": 66663,
        "name": "KSLV-II R/B",
        "group": "last-30-days",
        "lat": -13.757812814922886,
        "lon": 90.2414586864612,
        "alt_km": 603.5199078229643,
        "timestamp": "2025-12-10T18:56:58.834309+00:00",
        "meta_object_name": "KSLV-II R/B",
        "meta_object_id": "2025-274P",
        "meta_epoch": "2025-12-10T08:27:36.540000",
        "meta_mean_motion": 14.97256115,
        "meta_eccentricity": 0.0049932,
        "meta_inclination": 97.741,
        "meta_ra_of_asc_node": 271.7172,
        "meta_arg_of_pericenter": 328.0407,
        "meta_mean_anomaly": 31.7788,
        "meta_ephemeris_type": 0,
        "meta_classification_type": "U",
        "meta_norad_cat_id": 66663,
        "meta_element_set_no": 999,
        "meta_rev_at_epoch": 205,
        "meta_bstar": 0.00047864,
        "meta_mean_motion_dot": 5.626e-05,
        "meta_mean_motion_ddot": 0,
        "tle_line1": "1 66663U 25274P   25344.35250625  .00005626  00000+0  47864-3 0  9993",
        "tle_line2": "2 66663  97.7410 271.7172 0049932 328.0407  31.7788 14.97256115  2057"
      },
      "geometry": {
        "type": "Point",
        "coordinates": [
          90.2414586864612,
          -13.757812814922886
        ]
      }
    },
    {
      "type": "Feature",
      "properties": {
        "norad_id": 66664,
        "name": "SOYUZ-MS 28",
        "group": "last-30-days",
        "lat": -41.00927651858078,
        "lon": 108.58691292607661,
        "alt_km": 421.7758760320921,
        "timestamp": "2025-12-10T18:56:58.834319+00:00",
        "meta_object_name": "SOYUZ-MS 28",
        "meta_object_id": "2025-275A",
        "meta_epoch": "2025-12-10T03:42:55.481184",
        "meta_mean_motion": 15.4946563,
        "meta_eccentricity": 0.0003395,
        "meta_inclination": 51.6306,
        "meta_ra_of_asc_node": 155.2782,
        "meta_arg_of_pericenter": 228.7831,
        "meta_mean_anomaly": 131.2865,
        "meta_ephemeris_type": 0,
        "meta_classification_type": "U",
        "meta_norad_cat_id": 66664,
        "meta_element_set_no": 999,
        "meta_rev_at_epoch": 204,
        "meta_bstar": 0.0002721,
        "meta_mean_motion_dot": 0.00014816,
        "meta_mean_motion_ddot": 0,
        "tle_line1": "1 66664U 25275A   25344.15480881  .00014816  00000+0  27210-3 0  9996",
        "tle_line2": "2 66664  51.6306 155.2782 0003395 228.7831 131.2865 15.49465630  2047"
      },
      "geometry": {
        "type": "Point",
        "coordinates": [
          108.58691292607661,
          -41.00927651858078
        ]
      }
    }
  ]
}